{"type": "FeatureCollection", "features": [ {"type": "Feature", "properties": {"norad_id": 30358, "name": "FENGYUN 1C DEB", "group": "fengyun-1c-debris", "lat": 14.722586519248972, "lon": 11.262466431164816, "alt_km": 764.4031131725023, "timestamp": "2025-12-26T07:29:18.731497+00:00", "meta": {"OBJECT_NAME": "FENGYUN 1C DEB", "OBJECT_ID": "1999-025ABV", "EPOCH": "2025-12-25T12:23:23.980128", "MEAN_MOTION": 14.20756673, "ECCENTRICITY": 0.0082485, "INCLINATION": 98.5544, "RA_OF_ASC_NODE": 188.2255, "ARG_OF_PERICENTER": 162.4283, "MEAN_ANOMALY": 254.6286, "EPHEMERIS_TYPE": 0, "CLASSIFICATION_TYPE": "U", "NORAD_CAT_ID": 30358, "ELEMENT_SET_NO": 999, "REV_AT_EPOCH": 97099, "BSTAR": 0.0016315, "MEAN_MOTION_DOT": 3.602e-05, "MEAN_MOTION_DDOT": 0}, "tle": {"line1": "1 30358U 99025ABV 25359.51624977  .00003602  00000+0  16315-2 0  9997", "line2": "2 30358  98.5544 188.2255 0082485 162.4283 254.6286 14.20756673970998"}}, "geometry": {"type": "Point", "coordinates": [11.262466431164816, 14.722586519248972]}}, {"type": "Feature", "properties": {"norad_id": 30359, "name": "FENGYUN 1C DEB", "group": "fengyun-1c-debris", "lat": -30.478771502452126, "lon": -163.5538071937092, "alt_km": 820.120550864599, "timestamp": "2025-12-26T07:29:18.731507+00:00", "meta": {"OBJECT_NAME": "FENGYUN 1C DEB", "OBJECT_ID": "1999-025ABW", "EPOCH": "2025-12-25T10:57:56.608416", "MEAN_MOTION": 13.94091333, "ECCENTRICITY": 0.0145546, "INCLINATION": 101.6269, "RA_OF_ASC_NODE": 188.4129, "ARG_OF_PERICENTER": 311.1157, "MEAN_ANOMALY": 47.7504, "EPHEMERIS_TYPE": 0, "CLASSIFICATION_TYPE": "U", "NORAD_CAT_ID": 30359, "ELEMENT_SET_NO": 999, "REV_AT_EPOCH": 95246, "BSTAR": 0.0029936, "MEAN_MOTION_DOT": 4.267e-05, "MEAN_MOTION_DDOT": 0}, "tle": {"line1": "1 30359U 99025ABW 25359.45690519  .00004267  00000+0  29936-2 0  9997", "line2": "2 30359 101.6269 188.4129 0145546 311.1157  47.7504 13.94091333952463"}}, "geometry": {"type": "Point", "coordinates": [-163.5538071937092, -30.478771502452126]}}, {"type": "Feature", "properties": {"norad_id": 30360, "name": "FENGYUN 1C DEB", "group": "fengyun-1c-debris", "lat": 56.66809072934729, "lon": -96.50855247053943, "alt_km": 776.1988323145351, "timestamp": "2025-12-26T07:29:18.731518+00:00", "meta": {"OBJECT_NAME": "FENGYUN 1C DEB", "OBJECT_ID": "1999-025ABX", "EPOCH": "2025-12-25T04:07:04.531008", "MEAN_MOTION": 14.26589304, "ECCENTRICITY": 0.0030737, "INCLINATION": 98.7642, "RA_OF_ASC_NODE": 68.784, "ARG_OF_PERICENTER": 111.94, "MEAN_ANOMALY": 276.511, "EPHEMERIS_TYPE": 0, "CLASSIFICATION_TYPE": "U", "NORAD_CAT_ID": 30360, "ELEMENT_SET_NO": 999, "REV_AT_EPOCH": 97602, "BSTAR": 0.001556, "MEAN_MOTION_DOT": 3.731e-05, "MEAN_MOTION_DDOT": 0}, "tle": {"line1": "1 30360U 99025ABX 25359.17158022  .00003731  00000+0  15560-2 0  9999", "line2": "2 30360  98.7642  68.7840 0030737 111.9400 276.5110 14.26589304976027"}}, "geometry": {"type": "Point", "coordinates": [-96.50855247053943, 56.66809072934729]}}, {"type": "Feature", "properties": {"norad_id": 30361, "name": "FENGYUN 1C DEB", "group": "fengyun-1c-debris", "lat": 14.077490471896237, "lon": -141.90502342985795, "alt_km": 854.4165759700581, "timestamp": "2025-12-26T07:29:18.731528+00:00", "meta": {"OBJECT_NAME": "FENGYUN 1C DEB", "OBJECT_ID": "1999-025ABY", "EPOCH": "2025-12-25T00:23:22.014528", "MEAN_MOTION": 14.25401938, "ECCENTRICITY": 0.00647826, "INCLINATION": 98.5687, "RA_OF_ASC_NODE": 34.6623, "ARG_OF_PERICENTER": 354.5534, "MEAN_ANOMALY": 5.4934, "EPHEMERIS_TYPE": 0, "CLASSIFICATION_TYPE": "U", "NORAD_CAT_ID": 30361, "ELEMENT_SET_NO": 999, "REV_AT_EPOCH": 97791, "BSTAR": 0.00082449655, "MEAN_MOTION_DOT": 1.945e-05, "MEAN_MOTION_DDOT": 0}, "tle": {"line1": "1 30361U 99025ABY 25359.01622702  .00001945  00000+0  82450-3 0  9992", "line2": "2 30361  98.5687  34.6623 0064782 354.5534   5.4934 14.25401938977913"}}, "geometry": {"type": "Point", "coordinates": [-141.90502342985795, 14.077490471896237]}}, {"type": "Feature", "properties": {"norad_id": 30362, "name": "FENGYUN 1C DEB", "group": "fengyun-1c-debris", "lat": -51.062817453423435, "lon": 91.86094088748591, "alt_km": 840.2783644107149, "timestamp": "2025-12-26T07:29:18.731538+00:00", "meta": {"OBJECT_NAME": "FENGYUN 1C DEB", "OBJECT_ID": "1999-025ABZ", "EPOCH": "2025-12-23T05:15:11.326176", "MEAN_MOTION": 14.11916121, "ECCENTRICITY": 0.00950352, "INCLINATION": 99.0504, "RA_OF_ASC_NODE": 280.1175, "ARG_OF_PERICENTER": 314.7871, "MEAN_ANOMALY": 44.5598, "EPHEMERIS_TYPE": 0, "CLASSIFICATION_TYPE": "U", "NORAD_CAT_ID": 30362, "ELEMENT_SET_NO": 999, "REV_AT_EPOCH": 96316, "BSTAR": 0.0025793491, "MEAN_MOTION_DOT": 4.875e-05, "MEAN_MOTION_DDOT": 0}, "tle": {"line1": "1 30362U 99025ABZ 25357.21888109  .00004875  00000+0  25793-2 0  9999", "line2": "2 30362  99.0504 280.1175 0095035 314.7871  44.5598 14.11916121963167"}}, "geometry": {"type": "Point", "coordinates": [91.86094088748591, -51.062817453423435]}}, {"type": "Feature", "properties": {"norad_id": 30363, "name": "FENGYUN 1C DEB", "group": "fengyun-1c-debris", "lat": 11.693314541148853, "lon": 69.76896809244195, "alt_km": 781.49136676951, "timestamp": "2025-12-26T07:29:18.731548+00:00", "meta": {"OBJECT_NAME": "FENGYUN 1C DEB", "OBJECT_ID": "1999-025ACA", "EPOCH": "2025-12-25T11:05:49.714944", "MEAN_MOTION": 14.16944438, "ECCENTRICITY": 0.0078591, "INCLINATION": 99.0299, "RA_OF_ASC_NODE": 70.7927, "ARG_OF_PERICENTER": 2.2322, "MEAN_ANOMALY": 357.9188, "EPHEMERIS_TYPE": 0, "CLASSIFICATION_TYPE": "U", "NORAD_CAT_ID": 30363, "ELEMENT_SET_NO": 999, "REV_AT_EPOCH": 97004, "BSTAR": 0.0013852, "MEAN_MOTION_DOT": 2.821e-05, "MEAN_MOTION_DDOT": 0}, "tle": {"line1": "1 30363U 99025ACA 25359.46238096  .00002821  00000+0  13852-2 0  9995", "line2": "2 30363  99.0299  70.7927 0078591   2.2322 357.9188 14.16944438970043"}}, "geometry": {"type": "Point", "coordinates": [69.76896809244195, 11.693314541148853]}}, {"type": "Feature", "properties": {"norad_id": 30364, "name": "FENGYUN 1C DEB", "group": "fengyun-1c-debris", "lat": 33.64395465610979, "lon": 101.00794190126447, "alt_km": 996.2055818647914, "timestamp": "2025-12-26T07:29:18.731558+00:00", "meta": {"OBJECT_NAME": "FENGYUN 1C DEB", "OBJECT_ID": "1999-025ACB", "EPOCH": "2025-12-25T17:21:29.143872", "MEAN_MOTION": 14.17375884, "ECCENTRICITY": 0.03302942, "INCLINATION": 98.1382, "RA_OF_ASC_NODE": 275.003, "ARG_OF_PERICENTER": 282.5055, "MEAN_ANOMALY": 103.5826, "EPHEMERIS_TYPE": 0, "CLASSIFICATION_TYPE": "U", "NORAD_CAT_ID": 30364, "ELEMENT_SET_NO": 999, "REV_AT_EPOCH": 95825, "BSTAR": 0.0030520471, "MEAN_MOTION_DOT": 0.00010553, "MEAN_MOTION_DDOT": 0}, "tle": {"line1": "1 30364U 99025ACB 25359.72325398  .00010553  00000+0  30520-2 0  9999", "line2": "2 30364  98.1382 275.0030 0330294 282.5055 103.5826 14.17375884958256"}}, "geometry": {"type": "Point", "coordinates": [101.00794190126447, 33.64395465610979]}}, {"type": "Feature", "properties": {"norad_id": 30365, "name": "FENGYUN 1C DEB", "group": "fengyun-1c-debris", "lat": 76.54428859801448, "lon": -45.01468921937609, "alt_km": 700.4726016744962, "timestamp": "2025-12-26T07:29:18.731568+00:00", "meta": {"OBJECT_NAME": "FENGYUN 1C DEB", "OBJECT_ID": "1999-025ACC", "EPOCH": "2025-12-25T22:55:01.932672", "MEAN_MOTION": 14.19243437, "ECCENTRICITY": 0.01680393, "INCLINATION": 98.6197, "RA_OF_ASC_NODE": 353.9812, "ARG_OF_PERICENTER": 73.4885, "MEAN_ANOMALY": 342.2347, "EPHEMERIS_TYPE": 0, "CLASSIFICATION_TYPE": "U", "NORAD_CAT_ID": 30365, "ELEMENT_SET_NO": 999, "REV_AT_EPOCH": 97800, "BSTAR": 0.00023088645, "MEAN_MOTION_DOT": 5.15e-06, "MEAN_MOTION_DDOT": 0}, "tle": {"line1": "1 30365U 99025ACC 25359.95488348  .00000515  00000+0  23089-3 0  9990", "line2": "2 30365  98.6197 353.9812 0168039  73.4885 342.2347 14.19243437978009"}}, "geometry": {"type": "Point", "coordinates": [-45.01468921937609, 76.54428859801448]}}, {"type": "Feature", "properties": {"norad_id": 30366, "name": "FENGYUN 1C DEB", "group": "fengyun-1c-debris", "lat": 35.96348579182021, "lon": 104.76547136813045, "alt_km": 741.0328685156983, "timestamp": "2025-12-26T07:29:18.731578+00:00", "meta": {"OBJECT_NAME": "FENGYUN 1C DEB", "OBJECT_ID": "1999-025ACD", "EPOCH": "2025-12-25T17:33:30.676320", "MEAN_MOTION": 14.33521453, "ECCENTRICITY": 0.00624533, "INCLINATION": 98.9242, "RA_OF_ASC_NODE": 277.6208, "ARG_OF_PERICENTER": 180.8003, "MEAN_ANOMALY": 209.401, "EPHEMERIS_TYPE": 0, "CLASSIFICATION_TYPE": "U", "NORAD_CAT_ID": 30366, "ELEMENT_SET_NO": 999, "REV_AT_EPOCH": 98509, "BSTAR": 0.00046377248, "MEAN_MOTION_DOT": 1.264e-05, "MEAN_MOTION_DDOT": 0}, "tle": {"line1": "1 30366U 99025ACD 25359.73160505  .00001264  00000+0  46377-3 0  9996", "line2": "2 30366  98.9242 277.6208 0062453 180.8003 209.4010 14.33521453985094"}}, "geometry": {"type": "Point", "coordinates": [104.76547136813045, 35.96348579182021]}}, {"type": "Feature", "properties": {"norad_id": 30368, "name": "FENGYUN 1C DEB", "group": "fengyun-1c-debris", "lat": 79.13612417809792, "lon": -16.756612326596212, "alt_km": 1109.7686319269633, "timestamp": "2025-12-26T07:29:18.731588+00:00", "meta": {"OBJECT_NAME": "FENGYUN 1C DEB", "OBJECT_ID": "1999-025ACF", "EPOCH": "2025-12-24T20:43:29.343648", "MEAN_MOTION": 13.7537778, "ECCENTRICITY": 0.01863355, "INCLINATION": 99.1881, "RA_OF_ASC_NODE": 104.3527, "ARG_OF_PERICENTER": 275.917, "MEAN_ANOMALY": 211.854, "EPHEMERIS_TYPE": 0, "CLASSIFICATION_TYPE": "U", "NORAD_CAT_ID": 30368, "ELEMENT_SET_NO": 999, "REV_AT_EPOCH": 94828, "BSTAR": 0.00049197383, "MEAN_MOTION_DOT": 4.92e-06, "MEAN_MOTION_DDOT": 0}, "tle": {"line1": "1 30368U 99025ACF 25358.86353407  .00000492  00000+0  49197-3 0  9991", "line2": "2 30368  99.1881 104.3527 0186335 275.9170 211.8540 13.75377780948287"}}, "geometry": {"type": "Point", "coordinates": [-16.756612326596212, 79.13612417809792]}}]}